ONEWEB-0035             
1 45143U 20008N   25208.71688149 -.00000311  00000+0 -92606-3 0  9990
2 45143  87.8797 101.0080 0001853  73.0014 287.1316 13.10369962266335
ONEWEB-0036             
1 45144U 20008P   25208.40150233  .00000138  00000+0  36020-3 0  9998
2 45144  87.8807 101.0131 0001788  86.6055 273.5277 13.10374810265834
ONEWEB-0038             
1 45145U 20008Q   25208.67870909 -.00000412  00000+0 -11970-2 0  9990
2 45145  87.8816  85.7391 0003585  73.6907 286.4615 13.11415196268588
ONEWEB-0039             
1 45146U 20008R   25208.76588234  .00000710  00000+0  19964-2 0  9998
2 45146  87.8804 100.9630 0002175  88.8630 271.2746 13.10380770266456
ONEWEB-0040             
1 45147U 20008S   25208.75921628  .00000568  00000+0  15911-2 0  9995
2 45147  87.8814 100.9923 0001846  78.0126 282.1209 13.10376781266168
ONEWEB-0043             
1 45149U 20008U   25208.60815809  .00000568  00000+0  15910-2 0  9993
2 45149  87.8807 101.0071 0001830  91.0754 269.0583 13.10376478265670
ONEWEB-0044             
1 45150U 20008V   25208.78909870 -.00000114  00000+0 -36257-3 0  9993
2 45150  87.8799 100.9626 0001835  85.7216 274.4121 13.10370295266764
ONEWEB-0045             
1 45151U 20008W   25208.59717113 -.00000165  00000+0 -50160-3 0  9995
2 45151  87.8814  85.7284 0001904  79.2242 280.9100 13.11414638267869
ONEWEB-0047             
1 45152U 20008X   25208.62974488  .00000207  00000+0  55810-3 0  9992
2 45152  87.8801 101.0037 0001898  80.1481 279.9860 13.10369236265694
ONEWEB-0048             
1 45153U 20008Y   25208.62477284  .00000464  00000+0  12943-2 0  9999
2 45153  87.8805 101.0288 0001839  79.6429 280.4905 13.10371322265301
ONEWEB-0049             
1 45154U 20008Z   25208.62726353  .00000316  00000+0  86868-3 0  9998
2 45154  87.8800 101.0218 0001414  86.7434 273.3855 13.10370098265522
ONEWEB-0051             
1 45155U 20008AA  25208.90066925 -.00000038  00000+0 -14395-3 0  9991
2 45155  87.8808  85.7114 0001781  76.9019 283.2308 13.11414604269363
ONEWEB-0052             
1 45156U 20008AB  25208.77499150  .00000555  00000+0  15543-2 0  9994
2 45156  87.8819 100.9375 0001450  92.3584 267.7709 13.10371331266218
ONEWEB-0053             
1 45157U 20008AC  25208.60485169  .00000508  00000+0  14193-2 0  9990
2 45157  87.8809 101.0301 0002143  82.6892 277.4479 13.10375967265404
ONEWEB-0054             
1 45158U 20008AD  25208.79241304 -.00000245  00000+0 -73945-3 0  9993
2 45158  87.8800 100.9668 0001749  76.5483 283.5839 13.10370897266304
ONEWEB-0056             
1 45159U 20008AE  25208.62061661  .00000574  00000+0  16089-2 0  9990
2 45159  87.8802 100.9979 0001823  78.4768 281.6564 13.10370589265673
ONEWEB-0057             
1 45160U 20008AF  25208.47537633  .00000260  00000+0  70886-3 0  9990
2 45160  87.8801 101.0407 0001805  83.3078 276.8254 13.10370621265827
