[{"OBJECT_NAME":"ONEWEB-0035","OBJECT_ID":"2020-008N","EPOCH":"2025-07-27T17:12:18.560736","MEAN_MOTION":13.10369962,"ECCENTRICITY":0.0001853,"INCLINATION":87.8797,"RA_OF_ASC_NODE":101.008,"ARG_OF_PERICENTER":73.0014,"MEAN_ANOMALY":287.1316,"EPHEMERIS_TYPE":0,"CLASSIFICATION_TYPE":"U","NORAD_CAT_ID":45143,"ELEMENT_SET_NO":999,"REV_AT_EPOCH":26633,"BSTAR":-0.00092606,"MEAN_MOTION_DOT":-3.11e-6,"MEAN_MOTION_DDOT":0},{"OBJECT_NAME":"ONEWEB-0036","OBJECT_ID":"2020-008P","EPOCH":"2025-07-27T09:38:09.801312","MEAN_MOTION":13.1037481,"ECCENTRICITY":0.0001788,"INCLINATION":87.8807,"RA_OF_ASC_NODE":101.0131,"ARG_OF_PERICENTER":86.6055,"MEAN_ANOMALY":273.5277,"EPHEMERIS_TYPE":0,"CLASSIFICATION_TYPE":"U","NORAD_CAT_ID":45144,"ELEMENT_SET_NO":999,"REV_AT_EPOCH":26583,"BSTAR":0.0003602,"MEAN_MOTION_DOT":1.38e-6,"MEAN_MOTION_DDOT":0},{"OBJECT_NAME":"ONEWEB-0038","OBJECT_ID":"2020-008Q","EPOCH":"2025-07-27T16:17:20.465376","MEAN_MOTION":13.11415196,"ECCENTRICITY":0.0003585,"INCLINATION":87.8816,"RA_OF_ASC_NODE":85.7391,"ARG_OF_PERICENTER":73.6907,"MEAN_ANOMALY":286.4615,"EPHEMERIS_TYPE":0,"CLASSIFICATION_TYPE":"U","NORAD_CAT_ID":45145,"ELEMENT_SET_NO":999,"REV_AT_EPOCH":26858,"BSTAR":-0.001197,"MEAN_MOTION_DOT":-4.12e-6,"MEAN_MOTION_DDOT":0},{"OBJECT_NAME":"ONEWEB-0039","OBJECT_ID":"2020-008R","EPOCH":"2025-07-27T18:22:52.234176","MEAN_MOTION":13.1038077,"ECCENTRICITY":0.0002175,"INCLINATION":87.8804,"RA_OF_ASC_NODE":100.963,"ARG_OF_PERICENTER":88.863,"MEAN_ANOMALY":271.2746,"EPHEMERIS_TYPE":0,"CLASSIFICATION_TYPE":"U","NORAD_CAT_ID":45146,"ELEMENT_SET_NO":999,"REV_AT_EPOCH":26645,"BSTAR":0.0019964,"MEAN_MOTION_DOT":7.1e-6,"MEAN_MOTION_DDOT":0},{"OBJECT_NAME":"ONEWEB-0040","OBJECT_ID":"2020-008S","EPOCH":"2025-07-27T18:13:16.286592","MEAN_MOTION":13.10376781,"ECCENTRICITY":0.0001846,"INCLINATION":87.8814,"RA_OF_ASC_NODE":100.9923,"ARG_OF_PERICENTER":78.0126,"MEAN_ANOMALY":282.1209,"EPHEMERIS_TYPE":0,"CLASSIFICATION_TYPE":"U","NORAD_CAT_ID":45147,"ELEMENT_SET_NO":999,"REV_AT_EPOCH":26616,"BSTAR":0.0015911,"MEAN_MOTION_DOT":5.68e-6,"MEAN_MOTION_DDOT":0},{"OBJECT_NAME":"ONEWEB-0043","OBJECT_ID":"2020-008U","EPOCH":"2025-07-27T14:35:44.858976","MEAN_MOTION":13.10376478,"ECCENTRICITY":0.000183,"INCLINATION":87.8807,"RA_OF_ASC_NODE":101.0071,"ARG_OF_PERICENTER":91.0754,"MEAN_ANOMALY":269.0583,"EPHEMERIS_TYPE":0,"CLASSIFICATION_TYPE":"U","NORAD_CAT_ID":45149,"ELEMENT_SET_NO":999,"REV_AT_EPOCH":26567,"BSTAR":0.001591,"MEAN_MOTION_DOT":5.68e-6,"MEAN_MOTION_DDOT":0},{"OBJECT_NAME":"ONEWEB-0044","OBJECT_ID":"2020-008V","EPOCH":"2025-07-27T18:56:18.127680","MEAN_MOTION":13.10370295,"ECCENTRICITY":0.0001835,"INCLINATION":87.8799,"RA_OF_ASC_NODE":100.9626,"ARG_OF_PERICENTER":85.7216,"MEAN_ANOMALY":274.4121,"EPHEMERIS_TYPE":0,"CLASSIFICATION_TYPE":"U","NORAD_CAT_ID":45150,"ELEMENT_SET_NO":999,"REV_AT_EPOCH":26676,"BSTAR":-0.00036257,"MEAN_MOTION_DOT":-1.14e-6,"MEAN_MOTION_DDOT":0},{"OBJECT_NAME":"ONEWEB-0045","OBJECT_ID":"2020-008W","EPOCH":"2025-07-27T14:19:55.585632","MEAN_MOTION":13.11414638,"ECCENTRICITY":0.0001904,"INCLINATION":87.8814,"RA_OF_ASC_NODE":85.7284,"ARG_OF_PERICENTER":79.2242,"MEAN_ANOMALY":280.91,"EPHEMERIS_TYPE":0,"CLASSIFICATION_TYPE":"U","NORAD_CAT_ID":45151,"ELEMENT_SET_NO":999,"REV_AT_EPOCH":26786,"BSTAR":-0.0005016,"MEAN_MOTION_DOT":-1.65e-6,"MEAN_MOTION_DDOT":0},{"OBJECT_NAME":"ONEWEB-0047","OBJECT_ID":"2020-008X","EPOCH":"2025-07-27T15:06:49.957632","MEAN_MOTION":13.10369236,"ECCENTRICITY":0.0001898,"INCLINATION":87.8801,"RA_OF_ASC_NODE":101.0037,"ARG_OF_PERICENTER":80.1481,"MEAN_ANOMALY":279.986,"EPHEMERIS_TYPE":0,"CLASSIFICATION_TYPE":"U","NORAD_CAT_ID":45152,"ELEMENT_SET_NO":999,"REV_AT_EPOCH":26569,"BSTAR":0.0005581,"MEAN_MOTION_DOT":2.07e-6,"MEAN_MOTION_DDOT":0},{"OBJECT_NAME":"ONEWEB-0048","OBJECT_ID":"2020-008Y","EPOCH":"2025-07-27T14:59:40.373376","MEAN_MOTION":13.10371322,"ECCENTRICITY":0.0001839,"INCLINATION":87.8805,"RA_OF_ASC_NODE":101.0288,"ARG_OF_PERICENTER":79.6429,"MEAN_ANOMALY":280.4905,"EPHEMERIS_TYPE":0,"CLASSIFICATION_TYPE":"U","NORAD_CAT_ID":45153,"ELEMENT_SET_NO":999,"REV_AT_EPOCH":26530,"BSTAR":0.0012943,"MEAN_MOTION_DOT":4.64e-6,"MEAN_MOTION_DDOT":0},{"OBJECT_NAME":"ONEWEB-0049","OBJECT_ID":"2020-008Z","EPOCH":"2025-07-27T15:03:15.568992","MEAN_MOTION":13.10370098,"ECCENTRICITY":0.0001414,"INCLINATION":87.88,"RA_OF_ASC_NODE":101.0218,"ARG_OF_PERICENTER":86.7434,"MEAN_ANOMALY":273.3855,"EPHEMERIS_TYPE":0,"CLASSIFICATION_TYPE":"U","NORAD_CAT_ID":45154,"ELEMENT_SET_NO":999,"REV_AT_EPOCH":26552,"BSTAR":0.00086868,"MEAN_MOTION_DOT":3.16e-6,"MEAN_MOTION_DDOT":0},{"OBJECT_NAME":"ONEWEB-0051","OBJECT_ID":"2020-008AA","EPOCH":"2025-07-27T21:36:57.823200","MEAN_MOTION":13.11414604,"ECCENTRICITY":0.0001781,"INCLINATION":87.8808,"RA_OF_ASC_NODE":85.7114,"ARG_OF_PERICENTER":76.9019,"MEAN_ANOMALY":283.2308,"EPHEMERIS_TYPE":0,"CLASSIFICATION_TYPE":"U","NORAD_CAT_ID":45155,"ELEMENT_SET_NO":999,"REV_AT_EPOCH":26936,"BSTAR":-0.00014395,"MEAN_MOTION_DOT":-3.8e-7,"MEAN_MOTION_DDOT":0},{"OBJECT_NAME":"ONEWEB-0052","OBJECT_ID":"2020-008AB","EPOCH":"2025-07-27T18:35:59.265600","MEAN_MOTION":13.10371331,"ECCENTRICITY":0.000145,"INCLINATION":87.8819,"RA_OF_ASC_NODE":100.9375,"ARG_OF_PERICENTER":92.3584,"MEAN_ANOMALY":267.7709,"EPHEMERIS_TYPE":0,"CLASSIFICATION_TYPE":"U","NORAD_CAT_ID":45156,"ELEMENT_SET_NO":999,"REV_AT_EPOCH":26621,"BSTAR":0.0015543,"MEAN_MOTION_DOT":5.55e-6,"MEAN_MOTION_DDOT":0},{"OBJECT_NAME":"ONEWEB-0053","OBJECT_ID":"2020-008AC","EPOCH":"2025-07-27T14:30:59.186016","MEAN_MOTION":13.10375967,"ECCENTRICITY":0.0002143,"INCLINATION":87.8809,"RA_OF_ASC_NODE":101.0301,"ARG_OF_PERICENTER":82.6892,"MEAN_ANOMALY":277.4479,"EPHEMERIS_TYPE":0,"CLASSIFICATION_TYPE":"U","NORAD_CAT_ID":45157,"ELEMENT_SET_NO":999,"REV_AT_EPOCH":26540,"BSTAR":0.0014193,"MEAN_MOTION_DOT":5.08e-6,"MEAN_MOTION_DDOT":0},{"OBJECT_NAME":"ONEWEB-0054","OBJECT_ID":"2020-008AD","EPOCH":"2025-07-27T19:01:04.486656","MEAN_MOTION":13.10370897,"ECCENTRICITY":0.0001749,"INCLINATION":87.88,"RA_OF_ASC_NODE":100.9668,"ARG_OF_PERICENTER":76.5483,"MEAN_ANOMALY":283.5839,"EPHEMERIS_TYPE":0,"CLASSIFICATION_TYPE":"U","NORAD_CAT_ID":45158,"ELEMENT_SET_NO":999,"REV_AT_EPOCH":26630,"BSTAR":-0.00073945,"MEAN_MOTION_DOT":-2.45e-6,"MEAN_MOTION_DDOT":0},{"OBJECT_NAME":"ONEWEB-0056","OBJECT_ID":"2020-008AE","EPOCH":"2025-07-27T14:53:41.275104","MEAN_MOTION":13.10370589,"ECCENTRICITY":0.0001823,"INCLINATION":87.8802,"RA_OF_ASC_NODE":100.9979,"ARG_OF_PERICENTER":78.4768,"MEAN_ANOMALY":281.6564,"EPHEMERIS_TYPE":0,"CLASSIFICATION_TYPE":"U","NORAD_CAT_ID":45159,"ELEMENT_SET_NO":999,"REV_AT_EPOCH":26567,"BSTAR":0.0016089,"MEAN_MOTION_DOT":5.74e-6,"MEAN_MOTION_DDOT":0},{"OBJECT_NAME":"ONEWEB-0057","OBJECT_ID":"2020-008AF","EPOCH":"2025-07-27T11:24:32.514912","MEAN_MOTION":13.10370621,"ECCENTRICITY":0.0001805,"INCLINATION":87.8801,"RA_OF_ASC_NODE":101.0407,"ARG_OF_PERICENTER":83.3078,"MEAN_ANOMALY":276.8254,"EPHEMERIS_TYPE":0,"CLASSIFICATION_TYPE":"U","NORAD_CAT_ID":45160,"ELEMENT_SET_NO":999,"REV_AT_EPOCH":26582,"BSTAR":0.00070886,"MEAN_MOTION_DOT":2.6e-6,"MEAN_MOTION_DDOT":0}]
